     2              NAVIGATION DATA                         RINEX VERSION / TYPE
CCRINEXN V1.6.0 UX  CDDIS               06-MAY-16 15:33     PGM / RUN BY / DATE 
IGS BROADCAST EPHEMERIS FILE                                COMMENT             
    0.1304D-07  0.2235D-07 -0.5960D-07 -0.1192D-06          ION ALPHA           
    0.1004D+06  0.1147D+06 -0.1311D+06 -0.4588D+06          ION BETA            
    0.279396772385D-08 0.532907051820D-14   589824     1895 DELTA-UTC: A0,A1,T,W
    17                                                      LEAP SECONDS        
                                                            END OF HEADER       
19 16  5  5 10  0  0.0-0.525710172951D-03 0.000000000000D+00 0.000000000000D+00
    0.620000000000D+02 0.521562500000D+02 0.415981613018D-08-0.857143342318D+00
    0.306218862534D-05 0.107895644614D-01 0.110380351543D-04 0.515361433411D+04
    0.381600000000D+06 0.191852450371D-06-0.274368254505D+01 0.191852450371D-06
    0.973505775932D+00 0.170375000000D+03 0.755455281962D+00-0.795604568695D-08
    0.798604693662D-09 0.000000000000D+00 0.189500000000D+04 0.000000000000D+00
    0.200000000000D+01 0.000000000000D+00-0.149011611938D-07 0.620000000000D+02
    0.374400000000D+06 0.400000000000D+01 0.000000000000D+00 0.000000000000D+00
20 16  5  5 10  0  0.0 0.410269945860D-03 0.238742359215D-11 0.000000000000D+00
    0.790000000000D+02-0.716250000000D+02 0.552487299028D-08 0.150507198180D+01
   -0.372715294361D-05 0.461823970545D-02 0.104345381260D-04 0.515373147774D+04
    0.381600000000D+06-0.745058059692D-07-0.826872882803D+00-0.135973095894D-06
    0.926200725258D+00 0.161750000000D+03 0.136591892005D+01-0.852249785339D-08
   -0.620025826564D-09 0.100000000000D+01 0.189500000000D+04 0.000000000000D+00
    0.200000000000D+01 0.000000000000D+00-0.838190317154D-08 0.790000000000D+02
    0.379200000000D+06 0.400000000000D+01 0.000000000000D+00 0.000000000000D+00
21 16  5  5 10  0  0.0-0.521576032042D-03-0.136424205266D-11 0.000000000000D+00
    0.500000000000D+02 0.201875000000D+02 0.561523389703D-08-0.155662113922D+01
    0.166520476341D-05 0.233805491589D-01 0.281631946564D-05 0.515361317444D+04
    0.381600000000D+06 0.379979610443D-06-0.181751574632D+01 0.437721610069D-06
    0.935793156638D+00 0.306093750000D+03-0.179501211200D+01-0.865643200371D-08
    0.305012705003D-09 0.100000000000D+01 0.189500000000D+04 0.000000000000D+00
    0.200000000000D+01 0.000000000000D+00-0.102445483208D-07 0.500000000000D+02
    0.374418000000D+06 0.400000000000D+01 0.000000000000D+00 0.000000000000D+00
22 16  5  5 10  0  0.0 0.348936766386D-03-0.795807864051D-11 0.000000000000D+00
    0.830000000000D+02-0.584375000000D+02 0.548058531891D-08 0.189921832396D+01
   -0.313296914101D-05 0.765525328461D-02 0.104736536741D-04 0.515383804894D+04
    0.381600000000D+06-0.465661287308D-07-0.774325239903D+00-0.156462192535D-06
    0.922875607553D+00 0.161562500000D+03-0.193202578625D+01-0.841320790812D-08
   -0.537165256720D-09 0.100000000000D+01 0.189500000000D+04 0.000000000000D+00
    0.280000000000D+01 0.000000000000D+00-0.176951289177D-07 0.830000000000D+02
    0.374400000000D+06 0.000000000000D+00 0.000000000000D+00 0.000000000000D+00
23 16  5  5 10  0  0.0-0.172413885593D-03-0.170530256582D-11 0.000000000000D+00
    0.700000000000D+02 0.126812500000D+03 0.487270296764D-08 0.991887465946D+00
    0.692531466484D-05 0.108448145911D-01 0.101216137409D-04 0.515369183922D+04
    0.381600000000D+06-0.651925802231D-07 0.301850253915D+00 0.149011611938D-06
    0.946604314349D+00 0.177562500000D+03-0.258588684381D+01-0.837463455143D-08
    0.120362156424D-09 0.000000000000D+00 0.189500000000D+04 0.000000000000D+00
    0.200000000000D+01 0.000000000000D+00-0.200234353542D-07 0.700000000000D+02
    0.374400000000D+06 0.400000000000D+01 0.000000000000D+00 0.000000000000D+00
24 16  5  5 10  0  0.0-0.165700912476D-04-0.568434188608D-12 0.000000000000D+00
    0.680000000000D+02 0.245312500000D+02 0.537200948004D-08 0.392380989180D+00
    0.129640102386D-05 0.440319918562D-02 0.635161995888D-06 0.515361740875D+04
    0.381600000000D+06-0.372529029846D-08 0.132773900522D+01 0.651925802231D-07
    0.949474138300D+00 0.356218750000D+03 0.418029565295D+00-0.895823028911D-08
   -0.832177520677D-10 0.100000000000D+01 0.189500000000D+04 0.000000000000D+00
    0.200000000000D+01 0.000000000000D+00 0.232830643654D-08 0.680000000000D+02
    0.376128000000D+06 0.400000000000D+01 0.000000000000D+00 0.000000000000D+00
25 16  5  5 10  0  0.0-0.165647361428D-03-0.704858393874D-11 0.000000000000D+00
    0.600000000000D+02-0.134406250000D+03 0.383908848487D-08-0.159681919781D+01
   -0.694207847118D-05 0.558444275521D-02 0.968202948570D-05 0.515376412201D+04
    0.381600000000D+06 0.156462192535D-06 0.240001407856D+01-0.176951289177D-06
    0.978588658466D+00 0.203031250000D+03 0.757472490924D+00-0.779889628391D-08
   -0.499306512406D-09 0.100000000000D+01 0.189500000000D+04 0.000000000000D+00
    0.200000000000D+01 0.000000000000D+00 0.558793544769D-08 0.600000000000D+02
    0.374418000000D+06 0.400000000000D+01 0.000000000000D+00 0.000000000000D+00
26 16  5  5 10  0  0.0-0.353809446096D-03-0.128466126625D-10 0.000000000000D+00
    0.920000000000D+02-0.122125000000D+03 0.426910639685D-08-0.237840134672D+01
   -0.632181763649D-05 0.102645368315D-02 0.937096774578D-05 0.515375621986D+04
    0.381600000000D+06 0.186264514923D-08 0.239142610137D+01 0.707805156708D-07
    0.960560822002D+00 0.201031250000D+03 0.144619157134D+00-0.806069290307D-08
   -0.358586365133D-09 0.100000000000D+01 0.189500000000D+04 0.000000000000D+00
    0.200000000000D+01 0.000000000000D+00 0.698491930962D-08 0.920000000000D+02
    0.374418000000D+06 0.400000000000D+01 0.000000000000D+00 0.000000000000D+00
27 16  5  5 10  0  0.0 0.892202369869D-04 0.397903932026D-11 0.000000000000D+00
    0.610000000000D+02 0.311875000000D+02 0.401481009010D-08 0.231480527835D+01
    0.166147947311D-05 0.362208054867D-02 0.117346644402D-04 0.515364608955D+04
    0.381600000000D+06-0.106170773506D-06-0.284223564803D+01-0.745058059692D-08
    0.971402897024D+00 0.157187500000D+03 0.259341459161D+00-0.781568269741D-08
    0.636812240072D-09 0.100000000000D+01 0.189500000000D+04 0.000000000000D+00
    0.200000000000D+01 0.000000000000D+00 0.139698386192D-08 0.610000000000D+02
    0.374418000000D+06 0.400000000000D+01 0.000000000000D+00 0.000000000000D+00
28 16  5  5 10  0  0.0 0.520843081176D-03 0.261479726760D-11 0.000000000000D+00
    0.240000000000D+02-0.122531250000D+03 0.337835500776D-08 0.307465648577D+01
   -0.626221299171D-05 0.197418745374D-01 0.118259340525D-04 0.515363412476D+04
    0.381600000000D+06 0.232830643654D-06 0.247440682029D+01-0.186264514923D-07
    0.989616246129D+00 0.161312500000D+03-0.161766305942D+01-0.727208862597D-08
   -0.426803492364D-09 0.000000000000D+00 0.189500000000D+04 0.000000000000D+00
    0.200000000000D+01 0.000000000000D+00-0.111758708954D-07 0.240000000000D+02
    0.374400000000D+06 0.400000000000D+01 0.000000000000D+00 0.000000000000D+00
29 16  5  5 10  0  0.0 0.657165888697D-03 0.113686837722D-12 0.000000000000D+00
    0.980000000000D+02 0.284687500000D+02 0.394159275459D-08-0.161735118430D+01
    0.151619315147D-05 0.102331431117D-02 0.117775052786D-04 0.515357794189D+04
    0.381600000000D+06-0.931322574616D-08-0.278279561436D+01-0.186264514923D-08
    0.977394430161D+00 0.162312500000D+03-0.307889930223D+00-0.769960643380D-08
    0.720387149874D-09 0.100000000000D+01 0.189500000000D+04 0.000000000000D+00
    0.200000000000D+01 0.000000000000D+00-0.102445483208D-07 0.980000000000D+02
    0.374418000000D+06 0.400000000000D+01 0.000000000000D+00 0.000000000000D+00
30 16  5  5 10  0  0.0 0.122628174722D-03 0.329691829393D-11 0.000000000000D+00
    0.730000000000D+02-0.115625000000D+02 0.517200114889D-08-0.384688227146D+00
   -0.759959220886D-06 0.200968701392D-02 0.113993883133D-05 0.515360319519D+04
    0.381600000000D+06 0.372529029846D-08 0.141904365926D+01-0.465661287308D-07
    0.952133427859D+00 0.353937500000D+03 0.298532349274D+01-0.879108046950D-08
   -0.217151902391D-09 0.000000000000D+00 0.189500000000D+04 0.000000000000D+00
    0.200000000000D+01 0.000000000000D+00 0.325962901115D-08 0.730000000000D+02
    0.375840000000D+06 0.400000000000D+01 0.000000000000D+00 0.000000000000D+00
31 16  5  5 10  0  0.0 0.270506367087D-03-0.181898940355D-11 0.000000000000D+00
    0.420000000000D+02 0.525000000000D+01 0.472019667796D-08-0.641907290610D+00
    0.268220901489D-06 0.817989173811D-02 0.112317502499D-05 0.515373636627D+04
    0.381600000000D+06 0.298023223877D-07 0.138382254892D+01-0.132247805595D-06
    0.971177146821D+00 0.364656250000D+03-0.399713286737D+00-0.860750137832D-08
   -0.471448192985D-10 0.100000000000D+01 0.189500000000D+04 0.000000000000D+00
    0.200000000000D+01 0.000000000000D+00-0.135041773319D-07 0.420000000000D+02
    0.374400000000D+06 0.000000000000D+00 0.000000000000D+00 0.000000000000D+00
32 16  5  5 10  0  0.0-0.173272565007D-05-0.500222085975D-11 0.000000000000D+00
    0.650000000000D+02 0.112281250000D+03 0.444268505567D-08 0.267835747136D+01
    0.586546957493D-05 0.300830462947D-03 0.111106783152D-04 0.515360137367D+04
    0.381600000000D+06-0.335276126862D-07 0.297688888348D+00-0.558793544769D-07
    0.960267537649D+00 0.164406250000D+03-0.240059233351D+01-0.800819071614D-08
    0.236438420038D-09 0.100000000000D+01 0.189500000000D+04 0.000000000000D+00
    0.200000000000D+01 0.000000000000D+00 0.465661287308D-09 0.650000000000D+02
    0.376206000000D+06 0.400000000000D+01 0.000000000000D+00 0.000000000000D+00
